LYNK TOWER 5            
1 59121U 24043Z   26068.92489786  .00009048  00000+0  31902-3 0  9994
2 59121  97.5458 204.7305 0010406 234.6422 125.3846 15.29454506111860
STARLINK-35550          
1 66267U 25247C   26068.59990003  .00027219  00000+0  92795-3 0  9999
2 66267  53.1601 191.5541 0001087  64.0380 296.0732 15.30193104 21029
